COSMOS 2534 [GLONASS-M] 
1 44299U 19030A   26194.28864225  .00000080  00000+0  00000+0 0  9996
2 44299  64.3707 191.7375 0013569 275.0885  88.2179  2.13102113 55480
BEIDOU-3 IGSO-2         
1 44337U 19035A   26194.29948845 -.00000127  00000+0  00000+0 0  9999
2 44337  55.2503 158.6338 0039601 216.6143 142.3714  1.00258153 25924
NAVSTAR 78 (USA 293)    
1 44506U 19056A   26193.36584550 -.00000089  00000+0  00000+0 0  9993
2 44506  55.6235 330.1426 0063318 198.1269  10.0581  2.00569838 50576
BEIDOU-3 M24            
1 44542U 19061A   26194.01621877  .00000066  00000+0  00000+0 0  9990
2 44542  54.3975 181.8569 0008601 359.3910   0.5969  1.86229159 46278
BEIDOU-3 M23            
1 44543U 19061B   26194.25991856  .00000062  00000+0  00000+0 0  9990
2 44543  54.3960 181.8172 0005926 339.9175  94.8887  1.86227330 46282
EUTELSAT 5 WEST B       
1 44624U 19067A   26194.27487500 -.00000045  00000+0  00000+0 0  9996
2 44624   0.0624 354.9316 0002969 118.6158 271.5564  1.00271523 24693
BEIDOU-3 M22            
1 44793U 19078A   26193.85646648 -.00000062  00000+0  00000+0 0  9997
2 44793  53.9110 298.9248 0005691  49.8475 310.2295  1.86227319 45121
BEIDOU-3 M21            
1 44794U 19078B   26193.45936353 -.00000062  00000+0  00000+0 0  9999
2 44794  53.8852 298.8992 0003702  52.5088 307.5509  1.86227618 45120
COSMOS 2544 [GLONASS-M] 
1 44850U 19088A   26192.43092138 -.00000019  00000+0  00000+0 0  9996
2 44850  65.5781  72.9223 0012343 255.3717 104.5561  2.13103003 51239
BEIDOU-3 M19            
1 44864U 19090A   26193.36018346 -.00000041  00000+0  00000+0 0  9991
2 44864  56.5807  61.9598 0016851 297.6742 193.4156  1.86231323 44708
BEIDOU-3 M20            
1 44865U 19090B   26193.25267008 -.00000041  00000+0  00000+0 0  9991
2 44865  56.5819  61.9971 0014506 312.8069 195.7820  1.86231124 44683
BEIDOU-3 G2             
1 45344U 20017A   26194.14914730 -.00000144  00000+0  00000+0 0  9999
2 45344   2.9142  47.6921 0001989  60.7811 316.2876  1.00269257 23526
COSMOS 2545 [GLONASS-M] 
1 45358U 20018A   26188.87178822 -.00000052  00000+0  00000+0 0  9990
2 45358  64.3418 311.6924 0009213 230.0449 129.8870  2.13102711 49103
BEIDOU-3 G3             
1 45807U 20040A   26194.29775510 -.00000358  00000+0  00000+0 0  9993
2 45807   2.5080  67.4712 0001703 326.9625 114.3593  1.00264704 22332
NAVSTAR 79 (USA 304)    
1 45854U 20041A   26192.41369499 -.00000052  00000+0  00000+0 0  9994
2 45854  56.6842  28.0045 0064962 204.6177 333.3873  2.00557807 44521
GALAXY 30 (G-30)        
1 46114U 20056C   26194.23586505  .00000034  00000+0  00000+0 0  9990
2 46114   0.0181  35.4758 0001953  79.1056 136.4367  1.00271193 21553
COSMOS 2547 [GLONASS-K] 
1 46805U 20075A   26194.22336666  .00000081  00000+0  00000+0 0  9990
2 46805  64.6015 191.6064 0009444 239.9966 119.9273  2.13099952 44469
NAVSTAR 80 (USA 309)    
1 46826U 20078A   26193.94401521  .00000084  00000+0  00000+0 0  9990
2 46826  53.9776 209.7341 0074497 207.7475 332.4229  2.00564842 42028
NAVSTAR 81 (USA 319)    
1 48859U 21054A   26193.93300233 -.00000091  00000+0  00000+0 0  9999
2 48859  55.1610 331.4250 0026406 228.5393 130.0348  2.00567088 37265
QZS-1R (MICHIBIKI-1R)   
1 49336U 21096A   26193.57683811 -.00000300  00000+0  00000+0 0  9995
2 49336  37.5114  79.2075 0755009 272.2000 278.6576  1.00245962 17263
GSAT0223 (GALILEO 27)   
1 49809U 21116A   26193.80162081 -.00000091  00000+0  00000+0 0  9997
2 49809  57.1512 340.9841 0002430 195.8611 164.1379  1.70475864 28612
GSAT0224 (GALILEO 28)   
1 49810U 21116B   26194.20063275 -.00000093  00000+0  00000+0 0  9991
2 49810  57.1521 340.9718 0001856 181.9569 175.5563  1.70475928 28641
COSMOS 2557 [GLONASS-K] 
1 52984U 22075A   26192.04119223 -.00000063  00000+0  00000+0 0  9994
2 52984  64.2833 313.6457 0010777 271.9721  87.9097  2.13102395 31220
COSMOS 2559 [GLONASS-K] 
1 54031U 22130A   26193.73793032 -.00000064  00000+0  00000+0 0  9995
2 54031  64.2546 313.6678 0013055 180.7672 179.2365  2.13101617 29232
COSMOS 2564 [GLONASS-M] 
1 54377U 22161A   26194.05033981  .00000084  00000+0  00000+0 0  9999
2 54377  64.7437 191.8531 0012248 225.0211 134.8990  2.13101967 28180
NAVSTAR 82 (USA 343)    
1 55268U 23009A   26194.13224721  .00000010  00000+0  00000+0 0  9993
2 55268  55.1237 147.4991 0006208 321.2401 219.8383  2.00569666 25769
BEIDOU-3 G4             
1 56564U 23066A   26194.30356179 -.00000283  00000+0  00000+0 0  9991
2 56564   0.4622 338.3610 0004870 187.9729  14.1847  1.00273065 11650
NVS-01 (IRNSS-1J)       
1 56759U 23076A   26194.30148179 -.00000338  00000+0  00000+0 0  9998
2 56759   2.1065 243.1740 0003562   7.3847 278.6183  1.00265489 11376
COSMOS 2569 [GLONASS-K2]
1 57517U 23114A   26194.06264751 -.00000012  00000+0  00000+0 0  9991
2 57517  65.3169  71.7482 0009748 296.0931  63.8786  2.13103689 22818
BEIDOU-3 M28            
1 58654U 23207A   26192.99938589 -.00000044  00000+0  00000+0 0  9999
2 58654  55.7747  61.4661 0002514   3.1911 356.8781  1.86229629 17300
BEIDOU-3 M26            
1 58655U 23207B   26193.87080068 -.00000042  00000+0  00000+0 0  9996
2 58655  55.7779  61.4233 0002060 324.6713  35.3855  1.86229638 17309
